{"type": "FeatureCollection", "features": [{"type": "Feature", "properties": {"norad_id": 37846, "name": "GSAT0101 (GALILEO-PFM)", "group": "galileo", "lat": -22.23469843579598, "lon": -28.261648355397952, "alt_km": 23218.105653873135, "timestamp": "2025-12-02T07:10:09.378036+00:00", "meta": {"OBJECT_NAME": "GSAT0101 (GALILEO-PFM)", "OBJECT_ID": "2011-060A", "EPOCH": "2025-11-24T03:07:29.832960", "MEAN_MOTION": 1.70475782, "ECCENTRICITY": 0.00025776, "INCLINATION": 57.0574, "RA_OF_ASC_NODE": 347.3256, "ARG_OF_PERICENTER": 308.2281, "MEAN_ANOMALY": 51.7929, "EPHEMERIS_TYPE": 0, "CLASSIFICATION_TYPE": "U", "NORAD_CAT_ID": 37846, "ELEMENT_SET_NO": 999, "REV_AT_EPOCH": 8762, "BSTAR": 0, "MEAN_MOTION_DOT": -6.3e-07, "MEAN_MOTION_DDOT": 0}, "tle": {"line1": "1 37846U 11060A   25328.13020640 -.00000063  00000+0  00000+0 0  9990", "line2": "2 37846  57.0574 347.3256 0002577 308.2281  51.7929  1.70475782 87620"}}, "geometry": {"type": "Point", "coordinates": [-28.261648355397952, -22.23469843579598]}}, {"type": "Feature", "properties": {"norad_id": 37847, "name": "GSAT0102 (GALILEO-FM2)", "group": "galileo", "lat": 15.591001187470622, "lon": -2.4616842070464577, "alt_km": 23216.30144824481, "timestamp": "2025-12-02T07:10:09.378061+00:00", "meta": {"OBJECT_NAME": "GSAT0102 (GALILEO-FM2)", "OBJECT_ID": "2011-060B", "EPOCH": "2025-11-29T14:59:45.115008", "MEAN_MOTION": 1.70475771, "ECCENTRICITY": 0.00046767, "INCLINATION": 57.0566, "RA_OF_ASC_NODE": 347.1768, "ARG_OF_PERICENTER": 305.2654, "MEAN_ANOMALY": 232.3795, "EPHEMERIS_TYPE": 0, "CLASSIFICATION_TYPE": "U", "NORAD_CAT_ID": 37847, "ELEMENT_SET_NO": 999, "REV_AT_EPOCH": 8772, "BSTAR": 0, "MEAN_MOTION_DOT": -5.6e-07, "MEAN_MOTION_DDOT": 0}, "tle": {"line1": "1 37847U 11060B   25333.62482772 -.00000056  00000+0  00000+0 0  9991", "line2": "2 37847  57.0566 347.1768 0004676 305.2654 232.3795  1.70475771 87728"}}, "geometry": {"type": "Point", "coordinates": [-2.4616842070464577, 15.591001187470622]}}, {"type": "Feature", "properties": {"norad_id": 38857, "name": "GSAT0103 (GALILEO-FM3)", "group": "galileo", "lat": -40.18740106971669, "lon": 71.71805051690053, "alt_km": 23222.118773133363, "timestamp": "2025-12-02T07:10:09.378076+00:00", "meta": {"OBJECT_NAME": "GSAT0103 (GALILEO-FM3)", "OBJECT_ID": "2012-055A", "EPOCH": "2025-11-28T20:42:38.723616", "MEAN_MOTION": 1.70473322, "ECCENTRICITY": 0.00022412, "INCLINATION": 55.6842, "RA_OF_ASC_NODE": 107.0477, "ARG_OF_PERICENTER": 266.7022, "MEAN_ANOMALY": 93.2527, "EPHEMERIS_TYPE": 0, "CLASSIFICATION_TYPE": "U", "NORAD_CAT_ID": 38857, "ELEMENT_SET_NO": 999, "REV_AT_EPOCH": 8159, "BSTAR": 0, "MEAN_MOTION_DOT": 5.5e-07, "MEAN_MOTION_DDOT": 0}, "tle": {"line1": "1 38857U 12055A   25332.86294819  .00000055  00000+0  00000+0 0  9994", "line2": "2 38857  55.6842 107.0477 0002241 266.7022  93.2527  1.70473322 81593"}}, "geometry": {"type": "Point", "coordinates": [71.71805051690053, -40.18740106971669]}}, {"type": "Feature", "properties": {"norad_id": 40128, "name": "GSAT0201 (GALILEO 5)", "group": "galileo", "lat": 48.86746982586722, "lon": 4.076297533323854, "alt_km": 20573.209914018767, "timestamp": "2025-12-02T07:10:09.378089+00:00", "meta": {"OBJECT_NAME": "GSAT0201 (GALILEO 5)", "OBJECT_ID": "2014-050A", "EPOCH": "2025-11-28T09:00:06.762528", "MEAN_MOTION": 1.85519533, "ECCENTRICITY": 0.16464881, "INCLINATION": 49.0938, "RA_OF_ASC_NODE": 281.6492, "ARG_OF_PERICENTER": 171.7362, "MEAN_ANOMALY": 191.3851, "EPHEMERIS_TYPE": 0, "CLASSIFICATION_TYPE": "U", "NORAD_CAT_ID": 40128, "ELEMENT_SET_NO": 999, "REV_AT_EPOCH": 7459, "BSTAR": 0, "MEAN_MOTION_DOT": -4.8e-07, "MEAN_MOTION_DDOT": 0}, "tle": {"line1": "1 40128U 14050A   25332.37507827 -.00000048  00000+0  00000+0 0  9990", "line2": "2 40128  49.0938 281.6492 1646488 171.7362 191.3851  1.85519533 74599"}}, "geometry": {"type": "Point", "coordinates": [4.076297533323854, 48.86746982586722]}}, {"type": "Feature", "properties": {"norad_id": 40129, "name": "GSAT0202 (GALILEO 6)", "group": "galileo", "lat": -37.14214057352616, "lon": -120.4216395361795, "alt_km": 24397.0714322082, "timestamp": "2025-12-02T07:10:09.378102+00:00", "meta": {"OBJECT_NAME": "GSAT0202 (GALILEO 6)", "OBJECT_ID": "2014-050B", "EPOCH": "2025-11-29T17:01:27.924672", "MEAN_MOTION": 1.85520097, "ECCENTRICITY": 0.1647266, "INCLINATION": 49.1079, "RA_OF_ASC_NODE": 280.6784, "ARG_OF_PERICENTER": 172.5408, "MEAN_ANOMALY": 190.2825, "EPHEMERIS_TYPE": 0, "CLASSIFICATION_TYPE": "U", "NORAD_CAT_ID": 40129, "ELEMENT_SET_NO": 999, "REV_AT_EPOCH": 7678, "BSTAR": 0, "MEAN_MOTION_DOT": -5.4e-07, "MEAN_MOTION_DDOT": 0}, "tle": {"line1": "1 40129U 14050B   25333.70935098 -.00000054  00000+0  00000+0 0  9991", "line2": "2 40129  49.1079 280.6784 1647266 172.5408 190.2825  1.85520097 76784"}}, "geometry": {"type": "Point", "coordinates": [-120.4216395361795, -37.14214057352616]}}, {"type": "Feature", "properties": {"norad_id": 40544, "name": "GSAT0203 (GALILEO 7)", "group": "galileo", "lat": 52.18532064265124, "lon": 109.59408830320784, "alt_km": 23233.697886733044, "timestamp": "2025-12-02T07:10:09.378114+00:00", "meta": {"OBJECT_NAME": "GSAT0203 (GALILEO 7)", "OBJECT_ID": "2015-017A", "EPOCH": "2025-11-29T04:30:08.373888", "MEAN_MOTION": 1.70475942, "ECCENTRICITY": 0.00064961, "INCLINATION": 56.8498, "RA_OF_ASC_NODE": 347.0502, "ARG_OF_PERICENTER": 266.8168, "MEAN_ANOMALY": 93.1521, "EPHEMERIS_TYPE": 0, "CLASSIFICATION_TYPE": "U", "NORAD_CAT_ID": 40544, "ELEMENT_SET_NO": 999, "REV_AT_EPOCH": 6579, "BSTAR": 0, "MEAN_MOTION_DOT": -5.6e-07, "MEAN_MOTION_DDOT": 0}, "tle": {"line1": "1 40544U 15017A   25333.18759692 -.00000056  00000+0  00000+0 0  9994", "line2": "2 40544  56.8498 347.0502 0006496 266.8168  93.1521  1.70475942 65799"}}, "geometry": {"type": "Point", "coordinates": [109.59408830320784, 52.18532064265124]}}, {"type": "Feature", "properties": {"norad_id": 40545, "name": "GSAT0204 (GALILEO 8)", "group": "galileo", "lat": -38.0451398889028, "lon": -43.76840233804225, "alt_km": 23215.320647678705, "timestamp": "2025-12-02T07:10:09.378125+00:00", "meta": {"OBJECT_NAME": "GSAT0204 (GALILEO 8)", "OBJECT_ID": "2015-017B", "EPOCH": "2025-12-01T04:52:01.322976", "MEAN_MOTION": 1.70475428, "ECCENTRICITY": 0.0006258, "INCLINATION": 56.8545, "RA_OF_ASC_NODE": 347.0126, "ARG_OF_PERICENTER": 260.1832, "MEAN_ANOMALY": 99.7883, "EPHEMERIS_TYPE": 0, "CLASSIFICATION_TYPE": "U", "NORAD_CAT_ID": 40545, "ELEMENT_SET_NO": 999, "REV_AT_EPOCH": 2887, "BSTAR": 0, "MEAN_MOTION_DOT": -5.9e-07, "MEAN_MOTION_DDOT": 0}, "tle": {"line1": "1 40545U 15017B   25335.20279309 -.00000059  00000+0  00000+0 0  9995", "line2": "2 40545  56.8545 347.0126 0006258 260.1832  99.7883  1.70475428 28876"}}, "geometry": {"type": "Point", "coordinates": [-43.76840233804225, -38.0451398889028]}}, {"type": "Feature", "properties": {"norad_id": 40889, "name": "GSAT0205 (GALILEO 9)", "group": "galileo", "lat": 54.74135195581662, "lon": -34.58127453083381, "alt_km": 23206.211596994115, "timestamp": "2025-12-02T07:10:09.378137+00:00", "meta": {"OBJECT_NAME": "GSAT0205 (GALILEO 9)", "OBJECT_ID": "2015-045A", "EPOCH": "2025-11-30T23:18:34.752384", "MEAN_MOTION": 1.70472884, "ECCENTRICITY": 0.00058923, "INCLINATION": 55.0077, "RA_OF_ASC_NODE": 227.0837, "ARG_OF_PERICENTER": 38.7902, "MEAN_ANOMALY": 321.3287, "EPHEMERIS_TYPE": 0, "CLASSIFICATION_TYPE": "U", "NORAD_CAT_ID": 40889, "ELEMENT_SET_NO": 999, "REV_AT_EPOCH": 6363, "BSTAR": 0, "MEAN_MOTION_DOT": 3e-07, "MEAN_MOTION_DDOT": 0}, "tle": {"line1": "1 40889U 15045A   25334.97123556  .00000030  00000+0  00000+0 0  9990", "line2": "2 40889  55.0077 227.0837 0005892  38.7902 321.3287  1.70472884 63632"}}, "geometry": {"type": "Point", "coordinates": [-34.58127453083381, 54.74135195581662]}}, {"type": "Feature", "properties": {"norad_id": 40890, "name": "GSAT0206 (GALILEO 10)", "group": "galileo", "lat": -32.31933021396145, "lon": -159.22086139581182, "alt_km": 23223.238787540206, "timestamp": "2025-12-02T07:10:09.378148+00:00", "meta": {"OBJECT_NAME": "GSAT0206 (GALILEO 10)", "OBJECT_ID": "2015-045B", "EPOCH": "2025-11-28T20:17:33.194976", "MEAN_MOTION": 1.70472951, "ECCENTRICITY": 0.00035605, "INCLINATION": 55.0075, "RA_OF_ASC_NODE": 227.1375, "ARG_OF_PERICENTER": 32.1082, "MEAN_ANOMALY": 327.9865, "EPHEMERIS_TYPE": 0, "CLASSIFICATION_TYPE": "U", "NORAD_CAT_ID": 40890, "ELEMENT_SET_NO": 999, "REV_AT_EPOCH": 6362, "BSTAR": 0, "MEAN_MOTION_DOT": 2.6e-07, "MEAN_MOTION_DDOT": 0}, "tle": {"line1": "1 40890U 15045B   25332.84552309  .00000026  00000+0  00000+0 0  9993", "line2": "2 40890  55.0075 227.1375 0003560  32.1082 327.9865  1.70472951 63625"}}, "geometry": {"type": "Point", "coordinates": [-159.22086139581182, -32.31933021396145]}}, {"type": "Feature", "properties": {"norad_id": 41174, "name": "GSAT0209 (GALILEO 12)", "group": "galileo", "lat": -29.128048732768068, "lon": -51.012513432127776, "alt_km": 23231.422396258127, "timestamp": "2025-12-02T07:10:09.378172+00:00", "meta": {"OBJECT_NAME": "GSAT0209 (GALILEO 12)", "OBJECT_ID": "2015-079A", "EPOCH": "2025-11-29T00:19:48.752544", "MEAN_MOTION": 1.70474337, "ECCENTRICITY": 0.00023288, "INCLINATION": 55.7045, "RA_OF_ASC_NODE": 106.7579, "ARG_OF_PERICENTER": 359.5232, "MEAN_ANOMALY": 0.4568, "EPHEMERIS_TYPE": 0, "CLASSIFICATION_TYPE": "U", "NORAD_CAT_ID": 41174, "ELEMENT_SET_NO": 999, "REV_AT_EPOCH": 6136, "BSTAR": 0, "MEAN_MOTION_DOT": 5.4e-07, "MEAN_MOTION_DDOT": 0}, "tle": {"line1": "1 41174U 15079A   25333.01375871  .00000054  00000+0  00000+0 0  9994", "line2": "2 41174  55.7045 106.7579 0002328 359.5232   0.4568  1.70474337 61369"}}, "geometry": {"type": "Point", "coordinates": [-51.012513432127776, -29.128048732768068]}}]}